{
  "type": "FeatureCollection",
  "features": [
    {
      "type": "Feature",
      "properties": {
        "norad_id": 40362,
        "name": "YAOGAN-26",
        "group": "resource",
        "lat": -77.96113950813641,
        "lon": 133.9050225014351,
        "alt_km": 457.4263291953721,
        "timestamp": "2025-12-14T20:40:31.425010+00:00",
        "meta_object_name": "YAOGAN-26",
        "meta_object_id": "2014-088A",
        "meta_epoch": "2025-12-14T07:04:03.107424",
        "meta_mean_motion": 15.39374928,
        "meta_eccentricity": 0.00059367,
        "meta_inclination": 97.0643,
        "meta_ra_of_asc_node": 348.9135,
        "meta_arg_of_pericenter": 24.961,
        "meta_mean_anomaly": 335.1923,
        "meta_ephemeris_type": 0,
        "meta_classification_type": "U",
        "meta_norad_cat_id": 40362,
        "meta_element_set_no": 999,
        "meta_rev_at_epoch": 60918,
        "meta_bstar": 0.00062202927,
        "meta_mean_motion_dot": 0.00024295,
        "meta_mean_motion_ddot": 0,
        "tle_line1": "1 40362U 14088A   25348.29448041  .00024295  00000+0  62203-3 0  9997",
        "tle_line2": "2 40362  97.0643 348.9135 0005936  24.9610 335.1923 15.39374928609185"
      },
      "geometry": {
        "type": "Point",
        "coordinates": [
          133.9050225014351,
          -77.96113950813641
        ]
      }
    },
    {
      "type": "Feature",
      "properties": {
        "norad_id": 40376,
        "name": "SMAP",
        "group": "resource",
        "lat": -68.91494424296725,
        "lon": 15.31414555346157,
        "alt_km": 690.4457132709158,
        "timestamp": "2025-12-14T20:40:31.425021+00:00",
        "meta_object_name": "SMAP",
        "meta_object_id": "2015-003A",
        "meta_epoch": "2025-12-14T07:52:07.118688",
        "meta_mean_motion": 14.63347485,
        "meta_eccentricity": 0.00012108,
        "meta_inclination": 98.1291,
        "meta_ra_of_asc_node": 353.0288,
        "meta_arg_of_pericenter": 90.2849,
        "meta_mean_anomaly": 269.8492,
        "meta_ephemeris_type": 0,
        "meta_classification_type": "U",
        "meta_norad_cat_id": 40376,
        "meta_element_set_no": 999,
        "meta_rev_at_epoch": 58058,
        "meta_bstar": 0.00015779974,
        "meta_mean_motion_dot": 7.68e-06,
        "meta_mean_motion_ddot": 0,
        "tle_line1": "1 40376U 15003A   25348.32786017  .00000768  00000+0  15780-3 0  9999",
        "tle_line2": "2 40376  98.1291 353.0288 0001210  90.2849 269.8492 14.63347485580588"
      },
      "geometry": {
        "type": "Point",
        "coordinates": [
          15.31414555346157,
          -68.91494424296725
        ]
      }
    },
    {
      "type": "Feature",
      "properties": {
        "norad_id": 40536,
        "name": "KOMPSAT-3A",
        "group": "resource",
        "lat": -55.65098352470904,
        "lon": 131.9391550026808,
        "alt_km": 442.7287772034733,
        "timestamp": "2025-12-14T20:40:31.425031+00:00",
        "meta_object_name": "KOMPSAT-3A",
        "meta_object_id": "2015-014A",
        "meta_epoch": "2025-12-14T08:46:03.292896",
        "meta_mean_motion": 15.44020102,
        "meta_eccentricity": 0.0005082,
        "meta_inclination": 97.6785,
        "meta_ra_of_asc_node": 322.8017,
        "meta_arg_of_pericenter": 123.5984,
        "meta_mean_anomaly": 236.5749,
        "meta_ephemeris_type": 0,
        "meta_classification_type": "U",
        "meta_norad_cat_id": 40536,
        "meta_element_set_no": 999,
        "meta_rev_at_epoch": 59320,
        "meta_bstar": 0.00044692321,
        "meta_mean_motion_dot": 0.00020325,
        "meta_mean_motion_ddot": 0,
        "tle_line1": "1 40536U 15014A   25348.36531589  .00020325  00000+0  44692-3 0  9990",
        "tle_line2": "2 40536  97.6785 322.8017 0005082 123.5984 236.5749 15.44020102593206"
      },
      "geometry": {
        "type": "Point",
        "coordinates": [
          131.9391550026808,
          -55.65098352470904
        ]
      }
    },
    {
      "type": "Feature",
      "properties": {
        "norad_id": 40697,
        "name": "SENTINEL-2A",
        "group": "resource",
        "lat": -81.42430964064182,
        "lon": 152.4274650870611,
        "alt_km": 797.1151707350218,
        "timestamp": "2025-12-14T20:40:31.425041+00:00",
        "meta_object_name": "SENTINEL-2A",
        "meta_object_id": "2015-028A",
        "meta_epoch": "2025-12-14T07:40:11.017344",
        "meta_mean_motion": 14.30814845,
        "meta_eccentricity": 0.00010797,
        "meta_inclination": 98.5688,
        "meta_ra_of_asc_node": 60.829,
        "meta_arg_of_pericenter": 89.1119,
        "meta_mean_anomaly": 271.0188,
        "meta_ephemeris_type": 0,
        "meta_classification_type": "U",
        "meta_norad_cat_id": 40697,
        "meta_element_set_no": 999,
        "meta_rev_at_epoch": 54729,
        "meta_bstar": 0.00016629471,
        "meta_mean_motion_dot": 3.92e-06,
        "meta_mean_motion_ddot": 0,
        "tle_line1": "1 40697U 15028A   25348.31957196  .00000392  00000+0  16629-3 0  9995",
        "tle_line2": "2 40697  98.5688  60.8290 0001079  89.1119 271.0188 14.30814845547295"
      },
      "geometry": {
        "type": "Point",
        "coordinates": [
          152.4274650870611,
          -81.42430964064182
        ]
      }
    },
    {
      "type": "Feature",
      "properties": {
        "norad_id": 40701,
        "name": "GAOFEN-8",
        "group": "resource",
        "lat": 57.470249378015446,
        "lon": 154.8711902826974,
        "alt_km": 442.21270593986264,
        "timestamp": "2025-12-14T20:40:31.425051+00:00",
        "meta_object_name": "GAOFEN-8",
        "meta_object_id": "2015-030A",
        "meta_epoch": "2025-12-14T07:56:09.652992",
        "meta_mean_motion": 15.38609485,
        "meta_eccentricity": 0.00116844,
        "meta_inclination": 97.6911,
        "meta_ra_of_asc_node": 166.5477,
        "meta_arg_of_pericenter": 132.2562,
        "meta_mean_anomaly": 227.9676,
        "meta_ephemeris_type": 0,
        "meta_classification_type": "U",
        "meta_norad_cat_id": 40701,
        "meta_element_set_no": 999,
        "meta_rev_at_epoch": 58295,
        "meta_bstar": 0.00038832734,
        "meta_mean_motion_dot": 0.00014761,
        "meta_mean_motion_ddot": 0,
        "tle_line1": "1 40701U 15030A   25348.33066728  .00014761  00000+0  38833-3 0  9994",
        "tle_line2": "2 40701  97.6911 166.5477 0011684 132.2562 227.9676 15.38609485582951"
      },
      "geometry": {
        "type": "Point",
        "coordinates": [
          154.8711902826974,
          57.470249378015446
        ]
      }
    },
    {
      "type": "Feature",
      "properties": {
        "norad_id": 40718,
        "name": "CARBONITE 1 (CBNT-1)",
        "group": "resource",
        "lat": -73.97729154860863,
        "lon": -162.31968054366035,
        "alt_km": 631.4298037069357,
        "timestamp": "2025-12-14T20:40:31.425061+00:00",
        "meta_object_name": "CARBONITE 1 (CBNT-1)",
        "meta_object_id": "2015-032D",
        "meta_epoch": "2025-12-14T08:03:40.000032",
        "meta_mean_motion": 14.82756299,
        "meta_eccentricity": 0.00145183,
        "meta_inclination": 97.6405,
        "meta_ra_of_asc_node": 169.3094,
        "meta_arg_of_pericenter": 175.7847,
        "meta_mean_anomaly": 184.3492,
        "meta_ephemeris_type": 0,
        "meta_classification_type": "U",
        "meta_norad_cat_id": 40718,
        "meta_element_set_no": 999,
        "meta_rev_at_epoch": 56194,
        "meta_bstar": 0.00040009633,
        "meta_mean_motion_dot": 3.188e-05,
        "meta_mean_motion_ddot": 0,
        "tle_line1": "1 40718U 15032D   25348.33587963  .00003188  00000+0  40010-3 0  9994",
        "tle_line2": "2 40718  97.6405 169.3094 0014518 175.7847 184.3492 14.82756299561942"
      },
      "geometry": {
        "type": "Point",
        "coordinates": [
          -162.31968054366035,
          -73.97729154860863
        ]
      }
    },
    {
      "type": "Feature",
      "properties": {
        "norad_id": 40878,
        "name": "YAOGAN-27",
        "group": "resource",
        "lat": 28.38382232768376,
        "lon": 163.91283929138575,
        "alt_km": 1202.094873984187,
        "timestamp": "2025-12-14T20:40:31.425072+00:00",
        "meta_object_name": "YAOGAN-27",
        "meta_object_id": "2015-040A",
        "meta_epoch": "2025-12-14T07:08:17.299680",
        "meta_mean_motion": 13.16059396,
        "meta_eccentricity": 0.00076324,
        "meta_inclination": 100.1016,
        "meta_ra_of_asc_node": 337.8471,
        "meta_arg_of_pericenter": 283.0574,
        "meta_mean_anomaly": 76.9688,
        "meta_ephemeris_type": 0,
        "meta_classification_type": "U",
        "meta_norad_cat_id": 40878,
        "meta_element_set_no": 999,
        "meta_rev_at_epoch": 49334,
        "meta_bstar": -0.00078415621,
        "meta_mean_motion_dot": -3.4e-06,
        "meta_mean_motion_ddot": 0,
        "tle_line1": "1 40878U 15040A   25348.29742245 -.00000340  00000+0 -78416-3 0  9991",
        "tle_line2": "2 40878 100.1016 337.8471 0007632 283.0574  76.9688 13.16059396493348"
      },
      "geometry": {
        "type": "Point",
        "coordinates": [
          163.91283929138575,
          28.38382232768376
        ]
      }
    }
  ]
}